CCSDS_OMM_VERS = 2.0
CREATION_DATE  = 
ORIGINATOR     = 

OBJECT_NAME    = STARLINK-35966
OBJECT_ID      = 2025-280A
CENTER_NAME    = EARTH
REF_FRAME      = TEME
TIME_SYSTEM    = UTC
MEAN_ELEMENT_THEORY = SGP/SGP4

EPOCH          = 2025-12-27T19:34:01.074144
MEAN_MOTION    = 15.52045052
ECCENTRICITY   = .0004508
INCLINATION    = 70.0003
RA_OF_ASC_NODE = 157.1246
ARG_OF_PERICENTER = 299.5836
MEAN_ANOMALY   = 60.4901

EPHEMERIS_TYPE = 0
CLASSIFICATION_TYPE = U
NORAD_CAT_ID   = 66821
ELEMENT_SET_NO = 999
REV_AT_EPOCH   = 527
BSTAR          = .17632E-2
MEAN_MOTION_DOT = .107958E-2
MEAN_MOTION_DDOT = 0

CCSDS_OMM_VERS = 2.0
CREATION_DATE  = 
ORIGINATOR     = 

OBJECT_NAME    = STARLINK-35958
OBJECT_ID      = 2025-280B
CENTER_NAME    = EARTH
REF_FRAME      = TEME
TIME_SYSTEM    = UTC
MEAN_ELEMENT_THEORY = SGP/SGP4

EPOCH          = 2025-12-27T19:33:19.805184
MEAN_MOTION    = 15.52586278
ECCENTRICITY   = .0004241
INCLINATION    = 70.0001
RA_OF_ASC_NODE = 157.1231
ARG_OF_PERICENTER = 289.6986
MEAN_ANOMALY   = 70.3743

EPHEMERIS_TYPE = 0
CLASSIFICATION_TYPE = U
NORAD_CAT_ID   = 66822
ELEMENT_SET_NO = 999
REV_AT_EPOCH   = 527
BSTAR          = .22509E-2
MEAN_MOTION_DOT = .141149E-2
MEAN_MOTION_DDOT = 0

CCSDS_OMM_VERS = 2.0
CREATION_DATE  = 
ORIGINATOR     = 

OBJECT_NAME    = STARLINK-35957
OBJECT_ID      = 2025-280C
CENTER_NAME    = EARTH
REF_FRAME      = TEME
TIME_SYSTEM    = UTC
MEAN_ELEMENT_THEORY = SGP/SGP4

EPOCH          = 2025-12-27T19:32:49.808832
MEAN_MOTION    = 15.52598805
ECCENTRICITY   = .0003576
INCLINATION    = 70.0001
RA_OF_ASC_NODE = 157.1226
ARG_OF_PERICENTER = 275.7262
MEAN_ANOMALY   = 84.3517

EPHEMERIS_TYPE = 0
CLASSIFICATION_TYPE = U
NORAD_CAT_ID   = 66823
ELEMENT_SET_NO = 999
REV_AT_EPOCH   = 527
BSTAR          = .18164E-2
MEAN_MOTION_DOT = .113517E-2
MEAN_MOTION_DDOT = 0

CCSDS_OMM_VERS = 2.0
CREATION_DATE  = 
ORIGINATOR     = 

OBJECT_NAME    = STARLINK-35896
OBJECT_ID      = 2025-280D
CENTER_NAME    = EARTH
REF_FRAME      = TEME
TIME_SYSTEM    = UTC
MEAN_ELEMENT_THEORY = SGP/SGP4

EPOCH          = 2025-12-27T19:32:22.802784
MEAN_MOTION    = 15.52477511
ECCENTRICITY   = .000511
INCLINATION    = 70.0001
RA_OF_ASC_NODE = 157.1204
ARG_OF_PERICENTER = 301.6187
MEAN_ANOMALY   = 58.4500

EPHEMERIS_TYPE = 0
CLASSIFICATION_TYPE = U
NORAD_CAT_ID   = 66824
ELEMENT_SET_NO = 999
REV_AT_EPOCH   = 527
BSTAR          = .19437E-2
MEAN_MOTION_DOT = .1211E-2
MEAN_MOTION_DDOT = 0

CCSDS_OMM_VERS = 2.0
CREATION_DATE  = 
ORIGINATOR     = 

OBJECT_NAME    = STARLINK-35476
OBJECT_ID      = 2025-280E
CENTER_NAME    = EARTH
REF_FRAME      = TEME
TIME_SYSTEM    = UTC
MEAN_ELEMENT_THEORY = SGP/SGP4

EPOCH          = 2025-12-27T17:59:05.792640
MEAN_MOTION    = 15.52474372
ECCENTRICITY   = .0005196
INCLINATION    = 70.0001
RA_OF_ASC_NODE = 157.2955
ARG_OF_PERICENTER = 297.4848
MEAN_ANOMALY   = 62.5810

EPHEMERIS_TYPE = 0
CLASSIFICATION_TYPE = U
NORAD_CAT_ID   = 66825
ELEMENT_SET_NO = 999
REV_AT_EPOCH   = 526
BSTAR          = .141E-2
MEAN_MOTION_DOT = .87423E-3
MEAN_MOTION_DDOT = 0

CCSDS_OMM_VERS = 2.0
CREATION_DATE  = 
ORIGINATOR     = 

OBJECT_NAME    = STARLINK-35898
OBJECT_ID      = 2025-280F
CENTER_NAME    = EARTH
REF_FRAME      = TEME
TIME_SYSTEM    = UTC
MEAN_ELEMENT_THEORY = SGP/SGP4

EPOCH          = 2025-12-27T19:31:21.609120
MEAN_MOTION    = 15.52578466
ECCENTRICITY   = .0002983
INCLINATION    = 70.0001
RA_OF_ASC_NODE = 157.1169
ARG_OF_PERICENTER = 276.6106
MEAN_ANOMALY   = 83.4741

EPHEMERIS_TYPE = 0
CLASSIFICATION_TYPE = U
NORAD_CAT_ID   = 66826
ELEMENT_SET_NO = 999
REV_AT_EPOCH   = 527
BSTAR          = .20134E-2
MEAN_MOTION_DOT = .125943E-2
MEAN_MOTION_DDOT = 0

CCSDS_OMM_VERS = 2.0
CREATION_DATE  = 
ORIGINATOR     = 

OBJECT_NAME    = STARLINK-35959
OBJECT_ID      = 2025-280G
CENTER_NAME    = EARTH
REF_FRAME      = TEME
TIME_SYSTEM    = UTC
MEAN_ELEMENT_THEORY = SGP/SGP4

EPOCH          = 2025-12-27T19:30:52.050816
MEAN_MOTION    = 15.52573021
ECCENTRICITY   = .0003118
INCLINATION    = 70.0001
RA_OF_ASC_NODE = 157.1157
ARG_OF_PERICENTER = 279.3766
MEAN_ANOMALY   = 80.7068

EPHEMERIS_TYPE = 0
CLASSIFICATION_TYPE = U
NORAD_CAT_ID   = 66827
ELEMENT_SET_NO = 999
REV_AT_EPOCH   = 527
BSTAR          = .23839E-2
MEAN_MOTION_DOT = .149573E-2
MEAN_MOTION_DDOT = 0

CCSDS_OMM_VERS = 2.0
CREATION_DATE  = 
ORIGINATOR     = 

OBJECT_NAME    = STARLINK-35982
OBJECT_ID      = 2025-280H
CENTER_NAME    = EARTH
REF_FRAME      = TEME
TIME_SYSTEM    = UTC
MEAN_ELEMENT_THEORY = SGP/SGP4

EPOCH          = 2025-12-27T17:57:06.501888
MEAN_MOTION    = 15.52596857
ECCENTRICITY   = .0003681
INCLINATION    = 70.0001
RA_OF_ASC_NODE = 157.2898
ARG_OF_PERICENTER = 268.0850
MEAN_ANOMALY   = 91.9915

EPHEMERIS_TYPE = 0
CLASSIFICATION_TYPE = U
NORAD_CAT_ID   = 66828
ELEMENT_SET_NO = 999
REV_AT_EPOCH   = 526
BSTAR          = .23117E-2
MEAN_MOTION_DOT = .145088E-2
MEAN_MOTION_DDOT = 0

CCSDS_OMM_VERS = 2.0
CREATION_DATE  = 
ORIGINATOR     = 

OBJECT_NAME    = STARLINK-36084
OBJECT_ID      = 2025-280J
CENTER_NAME    = EARTH
REF_FRAME      = TEME
TIME_SYSTEM    = UTC
MEAN_ELEMENT_THEORY = SGP/SGP4

EPOCH          = 2025-12-27T19:30:22.038048
MEAN_MOTION    = 15.52621408
ECCENTRICITY   = .0003853
INCLINATION    = 70.0002
RA_OF_ASC_NODE = 157.1140
ARG_OF_PERICENTER = 286.4026
MEAN_ANOMALY   = 73.6738

EPHEMERIS_TYPE = 0
CLASSIFICATION_TYPE = U
NORAD_CAT_ID   = 66829
ELEMENT_SET_NO = 999
REV_AT_EPOCH   = 527
BSTAR          = .13783E-2
MEAN_MOTION_DOT = .85869E-3
MEAN_MOTION_DDOT = 0

CCSDS_OMM_VERS = 2.0
CREATION_DATE  = 
ORIGINATOR     = 

OBJECT_NAME    = STARLINK-35881
OBJECT_ID      = 2025-280K
CENTER_NAME    = EARTH
REF_FRAME      = TEME
TIME_SYSTEM    = UTC
MEAN_ELEMENT_THEORY = SGP/SGP4

EPOCH          = 2025-12-27T19:30:13.487040
MEAN_MOTION    = 15.50413997
ECCENTRICITY   = .0006006
INCLINATION    = 70.0002
RA_OF_ASC_NODE = 157.1135
ARG_OF_PERICENTER = 267.0883
MEAN_ANOMALY   = 92.9616

EPHEMERIS_TYPE = 0
CLASSIFICATION_TYPE = U
NORAD_CAT_ID   = 66830
ELEMENT_SET_NO = 999
REV_AT_EPOCH   = 527
BSTAR          = -.14587E-2
MEAN_MOTION_DOT = -.82605E-3
MEAN_MOTION_DDOT = 0

CCSDS_OMM_VERS = 2.0
CREATION_DATE  = 
ORIGINATOR     = 

OBJECT_NAME    = STARLINK-35788
OBJECT_ID      = 2025-280L
CENTER_NAME    = EARTH
REF_FRAME      = TEME
TIME_SYSTEM    = UTC
MEAN_ELEMENT_THEORY = SGP/SGP4

EPOCH          = 2025-12-27T19:28:53.306112
MEAN_MOTION    = 15.52567471
ECCENTRICITY   = .00034
INCLINATION    = 69.9999
RA_OF_ASC_NODE = 157.1106
ARG_OF_PERICENTER = 273.6036
MEAN_ANOMALY   = 86.4762

EPHEMERIS_TYPE = 0
CLASSIFICATION_TYPE = U
NORAD_CAT_ID   = 66831
ELEMENT_SET_NO = 999
REV_AT_EPOCH   = 527
BSTAR          = .24407E-2
MEAN_MOTION_DOT = .15318E-2
MEAN_MOTION_DDOT = 0

CCSDS_OMM_VERS = 2.0
CREATION_DATE  = 
ORIGINATOR     = 

OBJECT_NAME    = STARLINK-35768
OBJECT_ID      = 2025-280M
CENTER_NAME    = EARTH
REF_FRAME      = TEME
TIME_SYSTEM    = UTC
MEAN_ELEMENT_THEORY = SGP/SGP4

EPOCH          = 2025-12-27T19:28:23.630304
MEAN_MOTION    = 15.52617758
ECCENTRICITY   = .0003533
INCLINATION    = 70.0002
RA_OF_ASC_NODE = 157.1089
ARG_OF_PERICENTER = 266.2152
MEAN_ANOMALY   = 93.8631

EPHEMERIS_TYPE = 0
CLASSIFICATION_TYPE = U
NORAD_CAT_ID   = 66832
ELEMENT_SET_NO = 999
REV_AT_EPOCH   = 527
BSTAR          = .24288E-2
MEAN_MOTION_DOT = .152703E-2
MEAN_MOTION_DDOT = 0

