STARLINK-35966          
1 66821U 25280A   25361.81529021  .00107958  00000+0  17632-2 0  9995
2 66821  70.0003 157.1246 0004508 299.5836  60.4901 15.52045052  5273
STARLINK-35958          
1 66822U 25280B   25361.81481256  .00141149  00000+0  22509-2 0  9992
2 66822  70.0001 157.1231 0004241 289.6986  70.3743 15.52586278  5270
STARLINK-35957          
1 66823U 25280C   25361.81446538  .00113517  00000+0  18164-2 0  9997
2 66823  70.0001 157.1226 0003576 275.7262  84.3517 15.52598805  5271
STARLINK-35896          
1 66824U 25280D   25361.81415281  .00121100  00000+0  19437-2 0  9990
2 66824  70.0001 157.1204 0005110 301.6187  58.4500 15.52477511  5273
STARLINK-35476          
1 66825U 25280E   25361.74937260  .00087423  00000+0  14100-2 0  9990
2 66825  70.0001 157.2955 0005196 297.4848  62.5810 15.52474372  5269
STARLINK-35898          
1 66826U 25280F   25361.81344455  .00125943  00000+0  20134-2 0  9991
2 66826  70.0001 157.1169 0002983 276.6106  83.4741 15.52578466  5278
STARLINK-35959          
1 66827U 25280G   25361.81310244  .00149573  00000+0  23839-2 0  9991
2 66827  70.0001 157.1157 0003118 279.3766  80.7068 15.52573021  5273
STARLINK-35982          
1 66828U 25280H   25361.74799192  .00145088  00000+0  23117-2 0  9993
2 66828  70.0001 157.2898 0003681 268.0850  91.9915 15.52596857  5267
STARLINK-36084          
1 66829U 25280J   25361.81275507  .00085869  00000+0  13783-2 0  9999
2 66829  70.0002 157.1140 0003853 286.4026  73.6738 15.52621408  5270
STARLINK-35881          
1 66830U 25280K   25361.81265610 -.00082605  00000+0 -14587-2 0  9995
2 66830  70.0002 157.1135 0006006 267.0883  92.9616 15.50413997  5274
STARLINK-35788          
1 66831U 25280L   25361.81172808  .00153180  00000+0  24407-2 0  9999
2 66831  69.9999 157.1106 0003400 273.6036  86.4762 15.52567471  5272
STARLINK-35768          
1 66832U 25280M   25361.81138461  .00152703  00000+0  24288-2 0  9994
2 66832  70.0002 157.1089 0003533 266.2152  93.8631 15.52617758  5276
